CCSDS_OMM_VERS = 2.0
CREATION_DATE  = 
ORIGINATOR     = 

OBJECT_NAME    = SILVERSAT
OBJECT_ID      = 1998-067XV
CENTER_NAME    = EARTH
REF_FRAME      = TEME
TIME_SYSTEM    = UTC
MEAN_ELEMENT_THEORY = SGP/SGP4

EPOCH          = 2026-02-08T16:42:33.024384
MEAN_MOTION    = 15.63047700
ECCENTRICITY   = .0002456
INCLINATION    = 51.6268
RA_OF_ASC_NODE = 212.3016
ARG_OF_PERICENTER = 240.1412
MEAN_ANOMALY   = 119.9338

EPHEMERIS_TYPE = 0
CLASSIFICATION_TYPE = U
NORAD_CAT_ID   = 66909
ELEMENT_SET_NO = 999
REV_AT_EPOCH   = 1064
BSTAR          = .1197E-2
MEAN_MOTION_DOT = .112035E-2
MEAN_MOTION_DDOT = 0

CCSDS_OMM_VERS = 2.0
CREATION_DATE  = 
ORIGINATOR     = 

OBJECT_NAME    = ISS OBJECT XW
OBJECT_ID      = 1998-067XW
CENTER_NAME    = EARTH
REF_FRAME      = TEME
TIME_SYSTEM    = UTC
MEAN_ELEMENT_THEORY = SGP/SGP4

EPOCH          = 2026-02-08T17:04:43.362336
MEAN_MOTION    = 15.61610309
ECCENTRICITY   = .0001021
INCLINATION    = 51.6259
RA_OF_ASC_NODE = 212.4001
ARG_OF_PERICENTER = 268.1943
MEAN_ANOMALY   = 91.8934

EPHEMERIS_TYPE = 0
CLASSIFICATION_TYPE = U
NORAD_CAT_ID   = 66910
ELEMENT_SET_NO = 999
REV_AT_EPOCH   = 1064
BSTAR          = .97309E-3
MEAN_MOTION_DOT = .85719E-3
MEAN_MOTION_DDOT = 0

CCSDS_OMM_VERS = 2.0
CREATION_DATE  = 
ORIGINATOR     = 

OBJECT_NAME    = ISS OBJECT XX
OBJECT_ID      = 1998-067XX
CENTER_NAME    = EARTH
REF_FRAME      = TEME
TIME_SYSTEM    = UTC
MEAN_ELEMENT_THEORY = SGP/SGP4

EPOCH          = 2026-02-08T17:31:37.784352
MEAN_MOTION    = 15.64294985
ECCENTRICITY   = .0002587
INCLINATION    = 51.6250
RA_OF_ASC_NODE = 211.7740
ARG_OF_PERICENTER = 282.2358
MEAN_ANOMALY   = 77.8347

EPHEMERIS_TYPE = 0
CLASSIFICATION_TYPE = U
NORAD_CAT_ID   = 66911
ELEMENT_SET_NO = 999
REV_AT_EPOCH   = 1064
BSTAR          = .12434E-2
MEAN_MOTION_DOT = .122432E-2
MEAN_MOTION_DDOT = 0

CCSDS_OMM_VERS = 2.0
CREATION_DATE  = 
ORIGINATOR     = 

OBJECT_NAME    = ISS OBJECT XY
OBJECT_ID      = 1998-067XY
CENTER_NAME    = EARTH
REF_FRAME      = TEME
TIME_SYSTEM    = UTC
MEAN_ELEMENT_THEORY = SGP/SGP4

EPOCH          = 2026-02-08T17:02:41.204832
MEAN_MOTION    = 15.58741559
ECCENTRICITY   = .0000964
INCLINATION    = 51.6281
RA_OF_ASC_NODE = 213.1466
ARG_OF_PERICENTER = 166.3031
MEAN_ANOMALY   = 193.7988

EPHEMERIS_TYPE = 0
CLASSIFICATION_TYPE = U
NORAD_CAT_ID   = 66912
ELEMENT_SET_NO = 999
REV_AT_EPOCH   = 1062
BSTAR          = .80332E-3
MEAN_MOTION_DOT = .63111E-3
MEAN_MOTION_DDOT = 0

CCSDS_OMM_VERS = 2.0
CREATION_DATE  = 
ORIGINATOR     = 

OBJECT_NAME    = ISS OBJECT XZ
OBJECT_ID      = 1998-067XZ
CENTER_NAME    = EARTH
REF_FRAME      = TEME
TIME_SYSTEM    = UTC
MEAN_ELEMENT_THEORY = SGP/SGP4

EPOCH          = 2026-02-08T18:58:31.202688
MEAN_MOTION    = 15.49485164
ECCENTRICITY   = .0011052
INCLINATION    = 51.6306
RA_OF_ASC_NODE = 215.1807
ARG_OF_PERICENTER = 93.2376
MEAN_ANOMALY   = 266.9877

EPHEMERIS_TYPE = 0
CLASSIFICATION_TYPE = U
NORAD_CAT_ID   = 67683
ELEMENT_SET_NO = 999
REV_AT_EPOCH   = 30
BSTAR          = .64617E-3
MEAN_MOTION_DOT = .36001E-3
MEAN_MOTION_DDOT = 0

CCSDS_OMM_VERS = 2.0
CREATION_DATE  = 
ORIGINATOR     = 

OBJECT_NAME    = GXIBA-1
OBJECT_ID      = 1998-067YA
CENTER_NAME    = EARTH
REF_FRAME      = TEME
TIME_SYSTEM    = UTC
MEAN_ELEMENT_THEORY = SGP/SGP4

EPOCH          = 2026-02-08T18:57:03.429792
MEAN_MOTION    = 15.49944568
ECCENTRICITY   = .0012998
INCLINATION    = 51.6305
RA_OF_ASC_NODE = 215.1750
ARG_OF_PERICENTER = 88.8988
MEAN_ANOMALY   = 271.3490

EPHEMERIS_TYPE = 0
CLASSIFICATION_TYPE = U
NORAD_CAT_ID   = 67684
ELEMENT_SET_NO = 999
REV_AT_EPOCH   = 30
BSTAR          = .10578E-2
MEAN_MOTION_DOT = .60448E-3
MEAN_MOTION_DDOT = 0

CCSDS_OMM_VERS = 2.0
CREATION_DATE  = 
ORIGINATOR     = 

OBJECT_NAME    = LEOPARD
OBJECT_ID      = 1998-067YB
CENTER_NAME    = EARTH
REF_FRAME      = TEME
TIME_SYSTEM    = UTC
MEAN_ELEMENT_THEORY = SGP/SGP4

EPOCH          = 2026-02-08T18:58:10.824384
MEAN_MOTION    = 15.49579708
ECCENTRICITY   = .0012994
INCLINATION    = 51.6308
RA_OF_ASC_NODE = 215.1793
ARG_OF_PERICENTER = 88.8496
MEAN_ANOMALY   = 271.3981

EPHEMERIS_TYPE = 0
CLASSIFICATION_TYPE = U
NORAD_CAT_ID   = 67685
ELEMENT_SET_NO = 999
REV_AT_EPOCH   = 30
BSTAR          = .72189E-3
MEAN_MOTION_DOT = .4047E-3
MEAN_MOTION_DDOT = 0

CCSDS_OMM_VERS = 2.0
CREATION_DATE  = 
ORIGINATOR     = 

OBJECT_NAME    = ISS OBJECT YC
OBJECT_ID      = 1998-067YC
CENTER_NAME    = EARTH
REF_FRAME      = TEME
TIME_SYSTEM    = UTC
MEAN_ELEMENT_THEORY = SGP/SGP4

EPOCH          = 2026-02-08T18:57:58.935744
MEAN_MOTION    = 15.49663796
ECCENTRICITY   = .0007827
INCLINATION    = 51.6312
RA_OF_ASC_NODE = 215.1787
ARG_OF_PERICENTER = 66.6373
MEAN_ANOMALY   = 293.5438

EPHEMERIS_TYPE = 0
CLASSIFICATION_TYPE = U
NORAD_CAT_ID   = 67686
ELEMENT_SET_NO = 999
REV_AT_EPOCH   = 30
BSTAR          = .82451E-3
MEAN_MOTION_DOT = .46365E-3
MEAN_MOTION_DDOT = 0

CCSDS_OMM_VERS = 2.0
CREATION_DATE  = 
ORIGINATOR     = 

OBJECT_NAME    = CORAL
OBJECT_ID      = 1998-067YD
CENTER_NAME    = EARTH
REF_FRAME      = TEME
TIME_SYSTEM    = UTC
MEAN_ELEMENT_THEORY = SGP/SGP4

EPOCH          = 2026-02-08T18:58:19.175808
MEAN_MOTION    = 15.49542161
ECCENTRICITY   = .0007945
INCLINATION    = 51.6312
RA_OF_ASC_NODE = 215.1806
ARG_OF_PERICENTER = 67.8051
MEAN_ANOMALY   = 292.3780

EPHEMERIS_TYPE = 0
CLASSIFICATION_TYPE = U
NORAD_CAT_ID   = 67687
ELEMENT_SET_NO = 999
REV_AT_EPOCH   = 22
BSTAR          = .64647E-3
MEAN_MOTION_DOT = .36051E-3
MEAN_MOTION_DDOT = 0

CCSDS_OMM_VERS = 2.0
CREATION_DATE  = 
ORIGINATOR     = 

OBJECT_NAME    = ISS OBJECT YE
OBJECT_ID      = 1998-067YE
CENTER_NAME    = EARTH
REF_FRAME      = TEME
TIME_SYSTEM    = UTC
MEAN_ELEMENT_THEORY = SGP/SGP4

EPOCH          = 2026-02-08T18:58:01.015392
MEAN_MOTION    = 15.49635337
ECCENTRICITY   = .0007826
INCLINATION    = 51.6314
RA_OF_ASC_NODE = 215.1786
ARG_OF_PERICENTER = 66.5242
MEAN_ANOMALY   = 293.6568

EPHEMERIS_TYPE = 0
CLASSIFICATION_TYPE = U
NORAD_CAT_ID   = 67688
ELEMENT_SET_NO = 999
REV_AT_EPOCH   = 22
BSTAR          = .76355E-3
MEAN_MOTION_DOT = .42841E-3
MEAN_MOTION_DDOT = 0

