SILVERSAT               
1 66909U 98067XV  26039.69621556  .00112035  00000+0  11970-2 0  9991
2 66909  51.6268 212.3016 0002456 240.1412 119.9338 15.63047700 10644
ISS OBJECT XW           
1 66910U 98067XW  26039.71161299  .00085719  00000+0  97309-3 0  9998
2 66910  51.6259 212.4001 0001021 268.1943  91.8934 15.61610309 10646
ISS OBJECT XX           
1 66911U 98067XX  26039.73029843  .00122432  00000+0  12434-2 0  9998
2 66911  51.6250 211.7740 0002587 282.2358  77.8347 15.64294985 10648
ISS OBJECT XY           
1 66912U 98067XY  26039.71019913  .00063111  00000+0  80332-3 0  9995
2 66912  51.6281 213.1466 0000964 166.3031 193.7988 15.58741559 10625
ISS OBJECT XZ           
1 67683U 98067XZ  26039.79063892  .00036001  00000+0  64617-3 0  9990
2 67683  51.6306 215.1807 0011052  93.2376 266.9877 15.49485164   301
GXIBA-1                 
1 67684U 98067YA  26039.78962303  .00060448  00000+0  10578-2 0  9993
2 67684  51.6305 215.1750 0012998  88.8988 271.3490 15.49944568   306
LEOPARD                 
1 67685U 98067YB  26039.79040306  .00040470  00000+0  72189-3 0  9995
2 67685  51.6308 215.1793 0012994  88.8496 271.3981 15.49579708   302
ISS OBJECT YC           
1 67686U 98067YC  26039.79026546  .00046365  00000+0  82451-3 0  9998
2 67686  51.6312 215.1787 0007827  66.6373 293.5438 15.49663796   302
CORAL                   
1 67687U 98067YD  26039.79049972  .00036051  00000+0  64647-3 0  9995
2 67687  51.6312 215.1806 0007945  67.8051 292.3780 15.49542161   222
ISS OBJECT YE           
1 67688U 98067YE  26039.79028953  .00042841  00000+0  76355-3 0  9995
2 67688  51.6314 215.1786 0007826  66.5242 293.6568 15.49635337   224
